{
  "type": "FeatureCollection",
  "features": [
    {
      "type": "Feature",
      "properties": {
        "norad_id": 57400,
        "name": "TIANMU-1 08",
        "group": "weather",
        "lat": 60.95132388811873,
        "lon": -133.07153576195174,
        "alt_km": 471.3118475290503,
        "timestamp": "2025-12-09T21:34:11.050486+00:00",
        "meta_object_name": "TIANMU-1 08",
        "meta_object_id": "2023-101B",
        "meta_epoch": "2025-12-09T14:46:05.516832",
        "meta_mean_motion": 15.27984681,
        "meta_eccentricity": 0.00075408,
        "meta_inclination": 97.2865,
        "meta_ra_of_asc_node": 33.3324,
        "meta_arg_of_pericenter": 92.4317,
        "meta_mean_anomaly": 267.7786,
        "meta_ephemeris_type": 0,
        "meta_classification_type": "U",
        "meta_norad_cat_id": 57400,
        "meta_element_set_no": 999,
        "meta_rev_at_epoch": 13267,
        "meta_bstar": 0.00040573737,
        "meta_mean_motion_dot": 0.00011019,
        "meta_mean_motion_ddot": 0,
        "tle_line1": "1 57400U 23101B   25343.61534163  .00011019  00000+0  40574-3 0  9993",
        "tle_line2": "2 57400  97.2865  33.3324 0007540  92.4317 267.7786 15.27984681132678"
      },
      "geometry": {
        "type": "Point",
        "coordinates": [
          -133.07153576195174,
          60.95132388811873
        ]
      }
    },
    {
      "type": "Feature",
      "properties": {
        "norad_id": 57401,
        "name": "TIANMU-1 09",
        "group": "weather",
        "lat": -10.57168085869633,
        "lon": -148.243064669294,
        "alt_km": 486.86656153643617,
        "timestamp": "2025-12-09T21:34:11.050497+00:00",
        "meta_object_name": "TIANMU-1 09",
        "meta_object_id": "2023-101C",
        "meta_epoch": "2025-12-09T14:27:08.639712",
        "meta_mean_motion": 15.28010658,
        "meta_eccentricity": 0.00068122,
        "meta_inclination": 97.2822,
        "meta_ra_of_asc_node": 32.8347,
        "meta_arg_of_pericenter": 92.2411,
        "meta_mean_anomaly": 267.9609,
        "meta_ephemeris_type": 0,
        "meta_classification_type": "U",
        "meta_norad_cat_id": 57401,
        "meta_element_set_no": 999,
        "meta_rev_at_epoch": 13267,
        "meta_bstar": 0.00038711515,
        "meta_mean_motion_dot": 0.00010516,
        "meta_mean_motion_ddot": 0,
        "tle_line1": "1 57401U 23101C   25343.60218333  .00010516  00000+0  38712-3 0  9993",
        "tle_line2": "2 57401  97.2822  32.8347 0006812  92.2411 267.9609 15.28010658132676"
      },
      "geometry": {
        "type": "Point",
        "coordinates": [
          -148.243064669294,
          -10.57168085869633
        ]
      }
    },
    {
      "type": "Feature",
      "properties": {
        "norad_id": 57402,
        "name": "TIANMU-1 10",
        "group": "weather",
        "lat": 2.234518913208781,
        "lon": 33.68510740899199,
        "alt_km": 484.46505103126947,
        "timestamp": "2025-12-09T21:34:11.050509+00:00",
        "meta_object_name": "TIANMU-1 10",
        "meta_object_id": "2023-101D",
        "meta_epoch": "2025-12-09T13:42:05.240736",
        "meta_mean_motion": 15.28001286,
        "meta_eccentricity": 0.00085628,
        "meta_inclination": 97.2903,
        "meta_ra_of_asc_node": 33.6506,
        "meta_arg_of_pericenter": 92.5267,
        "meta_mean_anomaly": 267.6953,
        "meta_ephemeris_type": 0,
        "meta_classification_type": "U",
        "meta_norad_cat_id": 57402,
        "meta_element_set_no": 999,
        "meta_rev_at_epoch": 13266,
        "meta_bstar": 0.00041158101,
        "meta_mean_motion_dot": 0.00011187,
        "meta_mean_motion_ddot": 0,
        "tle_line1": "1 57402U 23101D   25343.57089399  .00011187  00000+0  41158-3 0  9991",
        "tle_line2": "2 57402  97.2903  33.6506 0008562  92.5267 267.6953 15.28001286132664"
      },
      "geometry": {
        "type": "Point",
        "coordinates": [
          33.68510740899199,
          2.234518913208781
        ]
      }
    },
    {
      "type": "Feature",
      "properties": {
        "norad_id": 57490,
        "name": "FENGYUN 3F",
        "group": "weather",
        "lat": -71.56425180701136,
        "lon": 79.6122170882038,
        "alt_km": 833.4468901720766,
        "timestamp": "2025-12-09T21:34:11.050519+00:00",
        "meta_object_name": "FENGYUN 3F",
        "meta_object_id": "2023-111A",
        "meta_epoch": "2025-12-09T15:09:05.201280",
        "meta_mean_motion": 14.19892435,
        "meta_eccentricity": 6.543e-05,
        "meta_inclination": 98.7087,
        "meta_ra_of_asc_node": 51.9748,
        "meta_arg_of_pericenter": 96.11,
        "meta_mean_anomaly": 264.015,
        "meta_ephemeris_type": 0,
        "meta_classification_type": "U",
        "meta_norad_cat_id": 57490,
        "meta_element_set_no": 999,
        "meta_rev_at_epoch": 12196,
        "meta_bstar": 9.9601123e-05,
        "meta_mean_motion_dot": 1.68e-06,
        "meta_mean_motion_ddot": 0,
        "tle_line1": "1 57490U 23111A   25343.63131020  .00000168  00000+0  99601-4 0  9999",
        "tle_line2": "2 57490  98.7087  51.9748 0000654  96.1100 264.0150 14.19892435121965"
      },
      "geometry": {
        "type": "Point",
        "coordinates": [
          79.6122170882038,
          -71.56425180701136
        ]
      }
    },
    {
      "type": "Feature",
      "properties": {
        "norad_id": 58584,
        "name": "ARKTIKA-M 2",
        "group": "weather",
        "lat": 42.62852766693989,
        "lon": -157.09893084747634,
        "alt_km": 23850.26904432192,
        "timestamp": "2025-12-09T21:34:11.050534+00:00",
        "meta_object_name": "ARKTIKA-M 2",
        "meta_object_id": "2023-198A",
        "meta_epoch": "2025-12-08T20:10:13.977120",
        "meta_mean_motion": 2.0060476,
        "meta_eccentricity": 0.68646991,
        "meta_inclination": 63.2247,
        "meta_ra_of_asc_node": 175.3152,
        "meta_arg_of_pericenter": 268.1185,
        "meta_mean_anomaly": 18.8267,
        "meta_ephemeris_type": 0,
        "meta_classification_type": "U",
        "meta_norad_cat_id": 58584,
        "meta_element_set_no": 999,
        "meta_rev_at_epoch": 1450,
        "meta_bstar": 0,
        "meta_mean_motion_dot": 1.66e-06,
        "meta_mean_motion_ddot": 0,
        "tle_line1": "1 58584U 23198A   25342.84043955  .00000166  00000+0  00000+0 0  9998",
        "tle_line2": "2 58584  63.2247 175.3152 6864699 268.1185  18.8267  2.00604760 14506"
      },
      "geometry": {
        "type": "Point",
        "coordinates": [
          -157.09893084747634,
          42.62852766693989
        ]
      }
    },
    {
      "type": "Feature",
      "properties": {
        "norad_id": 58645,
        "name": "TIANMU-1 11",
        "group": "weather",
        "lat": -36.67302487797814,
        "lon": 178.04774790315514,
        "alt_km": 500.04903059786193,
        "timestamp": "2025-12-09T21:34:11.050548+00:00",
        "meta_object_name": "TIANMU-1 11",
        "meta_object_id": "2023-205A",
        "meta_epoch": "2025-12-09T14:19:09.933600",
        "meta_mean_motion": 15.24539701,
        "meta_eccentricity": 0.00081661,
        "meta_inclination": 97.3608,
        "meta_ra_of_asc_node": 3.2749,
        "meta_arg_of_pericenter": 323.2504,
        "meta_mean_anomaly": 36.8173,
        "meta_ephemeris_type": 0,
        "meta_classification_type": "U",
        "meta_norad_cat_id": 58645,
        "meta_element_set_no": 999,
        "meta_rev_at_epoch": 10861,
        "meta_bstar": 0.00038691723,
        "meta_mean_motion_dot": 9.464e-05,
        "meta_mean_motion_ddot": 0,
        "tle_line1": "1 58645U 23205A   25343.59664275  .00009464  00000+0  38692-3 0  9994",
        "tle_line2": "2 58645  97.3608   3.2749 0008166 323.2504  36.8173 15.24539701108619"
      },
      "geometry": {
        "type": "Point",
        "coordinates": [
          178.04774790315514,
          -36.67302487797814
        ]
      }
    },
    {
      "type": "Feature",
      "properties": {
        "norad_id": 58646,
        "name": "TIANMU-1 12",
        "group": "weather",
        "lat": 69.16018777040233,
        "lon": -16.470944098632323,
        "alt_km": 488.27006403896485,
        "timestamp": "2025-12-09T21:34:11.051006+00:00",
        "meta_object_name": "TIANMU-1 12",
        "meta_object_id": "2023-205B",
        "meta_epoch": "2025-12-09T14:57:37.091808",
        "meta_mean_motion": 15.24419608,
        "meta_eccentricity": 0.00060519,
        "meta_inclination": 97.3596,
        "meta_ra_of_asc_node": 3.1077,
        "meta_arg_of_pericenter": 305.4165,
        "meta_mean_anomaly": 54.6507,
        "meta_ephemeris_type": 0,
        "meta_classification_type": "U",
        "meta_norad_cat_id": 58646,
        "meta_element_set_no": 999,
        "meta_rev_at_epoch": 10860,
        "meta_bstar": 0.00037087642,
        "meta_mean_motion_dot": 9.032e-05,
        "meta_mean_motion_ddot": 0,
        "tle_line1": "1 58646U 23205B   25343.62334597  .00009032  00000+0  37088-3 0  9999",
        "tle_line2": "2 58646  97.3596   3.1077 0006051 305.4165  54.6507 15.24419608108606"
      },
      "geometry": {
        "type": "Point",
        "coordinates": [
          -16.470944098632323,
          69.16018777040233
        ]
      }
    }
  ]
}